LUR-1                   
1 60506U 24149AQ  24325.27669273  .00007333  00000+0  34017-3 0  9998
2 60506  97.4324  39.3766 0005351 154.8855 205.2641 15.20328393 14496
TANAGER-1               
1 60507U 24149AR  24325.18166264  .00090359  00000+0  29748-2 0  9995
2 60507  97.4327  39.6522 0004643 282.9748  77.0974 15.31123794 14506
EAGLEEYE                
1 60508U 24149AS  24325.52172939  .00025154  00000+0  10582-2 0  9997
2 60508  97.4299  39.7876 0005376 156.8073 203.3408 15.23364313 14547
FLOCK 4BE-29            
1 60509U 24149AT  24325.15816160  .00018738  00000+0  81935-3 0  9999
2 60509  97.4360  39.4348 0004262 161.5735 198.5656 15.22116247 14482
2024-149AU              
1 60510U 24149AU  24324.70654677  .00014495  00000+0  64064-3 0  9994
2 60510  97.4297  38.8844 0005689 162.4591 197.6842 15.21800550 14417
FLOCK 4BE-2             
1 60511U 24149AV  24325.14573656  .00018768  00000+0  81452-3 0  9998
2 60511  97.4366  39.4564 0004484 161.9348 198.2048 15.22372264 14486
FLOCK 4BE-13            
1 60512U 24149AW  24325.48902111  .00016159  00000+0  70815-3 0  9991
2 60512  97.4276  39.6492 0006171 157.2790 202.8720 15.22064026 14532
FLOCK 4BE-27            
1 60513U 24149AX  24324.78251250  .00010728  00000+0  48381-3 0  9994
2 60513  97.4368  39.0208 0005590 167.4088 192.7288 15.21184464 14423
FLOCK 4BE-9             
1 60514U 24149AY  24325.15630477  .00017447  00000+0  76769-3 0  9995
2 60514  97.4344  39.4164 0004741 168.8636 191.2706 15.21916797 14481
FLOCK 4BE-8             
1 60515U 24149AZ  24324.70115495  .00013791  00000+0  61183-3 0  9996
2 60515  97.4294  38.8864 0006309 168.4919 191.6462 15.21679478 14416
FLOCK 4BE-6             
1 60516U 24149BA  24325.16086852  .00016135  00000+0  71646-3 0  9992
2 60516  97.4353  39.4171 0005399 169.1018 191.0336 15.21617899 14487
FLOCK 4BE-14            
1 60517U 24149BB  24325.00660366  .00015241  00000+0  66486-3 0  9997
2 60517  97.4295  39.2460 0006845 167.5925 192.5481 15.22229955 14466
FLOCK 4BE-1             
1 60518U 24149BC  24325.07264116  .00018191  00000+0  78966-3 0  9991
2 60518  97.4342  39.3699 0005809 173.1583 186.9733 15.22364678 14477
FLOCK 4BE-28            
1 60519U 24149BD  24325.20463393  .00013649  00000+0  59317-3 0  9997
2 60519  97.4307  39.4553 0006898 169.6839 190.4540 15.22383179 14497
IPERDRONE.0             
1 60520U 24149BE  24325.16005698  .00025830  00000+0  10693-2 0  9992
2 60520  97.4316  39.5230 0007171 165.0466 195.0984 15.23893150 14492
2024-149BF              
1 60521U 24149BF  24325.20877481  .00022249  00000+0  91247-3 0  9991
2 60521  97.4338  39.6347 0006716 162.3978 197.7493 15.24243149 14503
CONNECTA IOT-2          
1 60522U 24149BG  24325.16257584  .00017417  00000+0  77718-3 0  9991
2 60522  97.4359  39.4218 0007399 171.6880 188.4479 15.21422056 14486
PTD-R (TYVAK-0127)      
1 60523U 24149BH  24325.24576968  .00028788  00000+0  11409-2 0  9998
2 60523  97.4288  39.6792 0007812 166.6473 193.4973 15.25331552 14512
CONNECTA IOT-4          
1 60524U 24149BJ  24325.16458369  .00010809  00000+0  48790-3 0  9993
2 60524  97.4323  39.3712 0008342 166.8685 193.2770 15.21134441 14481
2024-149BK              
1 60525U 24149BK  24325.17549257  .00019229  00000+0  81946-3 0  9997
2 60525  97.4274  39.4531 0008723 162.5715 197.5823 15.22961170 14492
DEIMOS                  
1 60526U 24149BL  24325.17551317  .00017736  00000+0  75896-3 0  9996
2 60526  97.4334  39.5292 0008668 167.0211 193.1250 15.22838070 14492
CUAVA-2                 
1 60527U 24149BM  24325.19380940  .00007696  00000+0  34131-3 0  9992
2 60527  97.4289  39.4448 0009220 157.7516 202.4121 15.21833230 14496
ERNST                   
1 60528U 24149BN  24325.15404395  .00017238  00000+0  76945-3 0  9992
2 60528  97.4353  39.4196 0008869 169.3451 190.7975 15.21402009 14485
GAINDESAT-1A            
1 60529U 24149BP  24325.21430125  .00033716  00000+0  13047-2 0  9992
2 60529  97.4350  39.8033 0008333 166.5405 193.6057 15.26090081 14516
TORO                    
1 60530U 24149BQ  24325.14469655  .00004997  00000+0  49252-3 0  9993
2 60530  97.7378  38.9391 0001472  97.7798 262.3589 14.92466933 14200
HYPSO-2                 
1 60531U 24149BR  24325.26209490  .00005776  00000+0  56026-3 0  9999
2 60531  97.7381  39.0891 0001700  97.5023 262.6389 14.93045504 14226
LEMU NGE                
1 60532U 24149BS  24325.19645851  .00004754  00000+0  46691-3 0  9999
2 60532  97.7408  39.0540 0002000 118.3966 241.7455 14.92630401 14216
LEMUR-2-STELLA          
1 60533U 24149BT  24325.18612667  .00013341  00000+0  12102-2 0  9999
2 60533  97.7361  39.1617 0002214 111.6650 248.4806 14.95433310 14222
SATELIOT_2              
1 60534U 24149BU  24325.26681929  .00003953  00000+0  38912-3 0  9992
2 60534  97.7402  39.1115 0000988 118.2616 241.8703 14.92646072 14235
NIGHTJAR                
1 60535U 24149BV  24325.58553502  .00006661  00000+0  64239-3 0  9993
2 60535  97.7422  39.4874 0000945 139.0358 221.0932 14.93219851 57086
LEMUR-2-MARHISYAM       
1 60536U 24149BW  24325.18941845  .00013007  00000+0  11848-2 0  9990
2 60536  97.7336  39.1315 0002323 125.9896 234.1541 14.95275736 14227
SATELIOT_4              
1 60537U 24149BX  24325.05667612  .00004122  00000+0  40365-3 0  9999
2 60537  97.7316  38.8218 0002885 132.9747 227.1714 14.92819313 14192
2024-149BY              
1 60538U 24149BY  24323.73306130  .00006707  00000+0  62992-3 0  9999
2 60538  97.7404  37.7390 0001890 174.4265 185.6976 14.94264896 13516
ICEYE-X43               
1 60539U 24149BZ  24325.20879428  .00006480  00000+0  61572-3 0  9990
2 60539  97.7342  39.1203 0003712 171.9797 188.1483 14.93815819 14220
HAWK-10A                
1 60540U 24149CA  24325.15713935  .00004362  00000+0  42252-3 0  9997
2 60540  97.7464  39.1874 0003899 169.0695 191.0610 14.93228749 14216
UMBRA-09                
1 60541U 24149CB  24324.79555897  .00016597  00000+0  14651-2 0  9992
2 60541  97.7391  38.9508 0003693 192.9440 167.1687 14.96447682 14177
QPS-SAR-8 (AMATERU-IV)  
1 60542U 24149CC  24325.17799396  .00010965  00000+0  10121-2 0  9991
2 60542  97.7387  39.2048 0003836 180.9708 179.1506 14.94797881 14225
ARCTIC WEATHER SATELLITE
1 60543U 24149CD  24324.95927544  .00003692  00000+0  38979-3 0  9996
2 60543  97.7401  38.7390 0003521 189.4375 170.6777 14.89862823 13804
CAPELLA-15 (ACADIA-5)   
1 60544U 24149CE  24325.16382748  .00026554  00000+0  23019-2 0  9992
2 60544  97.7341  39.3275 0005804 178.0238 182.1008 14.97044284 14230
HAWK-10B                
1 60545U 24149CF  24325.08999189  .00004329  00000+0  41930-3 0  9996
2 60545  97.7392  39.0198 0005368 194.3974 165.7093 14.93229651 14208
ICEYE-X39               
1 60546U 24149CG  24325.25022103  .00004484  00000+0  42317-3 0  9991
2 60546  97.7354  39.2207 0004877 184.8338 175.2836 14.94241880 14235
UMBRA-10                
1 60547U 24149CH  24325.17187241  .00020205  00000+0  17576-2 0  9995
2 60547  97.7396  39.3708 0004522 186.1135 174.0032 14.96975421 14249
ICEYE-X33               
1 60548U 24149CJ  24325.16241658  .00010669  00000+0  98177-3 0  9998
2 60548  97.7382  39.2227 0004904 188.3222 171.7918 14.94920566 14228
ICEYE-X40               
1 60549U 24149CK  24325.17470457  .00008168  00000+0  76299-3 0  9993
2 60549  97.7370  39.1841 0005127 186.0623 174.0536 14.94404912 14229
SATELIOT_1              
1 60550U 24149CL  24325.16564939  .00005704  00000+0  53602-3 0  9999
2 60550  97.7312  39.1342 0007191 184.6610 175.4544 14.94289636 14224
BRO-14                  
1 60551U 24149CM  24325.17589939  .00002387  00000+0  23048-3 0  9993
2 60551  97.7438  39.2624 0006420 202.8153 157.2782 14.93777550 14225
SATELIOT_3              
1 60552U 24149CN  24325.14991284  .00005664  00000+0  52841-3 0  9995
2 60552  97.7375  39.2349 0007920 197.9461 162.1480 14.94580143 14223
BRO-15                  
1 60553U 24149CP  24325.15768297  .00002404  00000+0  22970-3 0  9992
2 60553  97.7365  39.2028 0007910 195.5472 164.5507 14.94173630 14227
UM5-RIBAT               
1 60554U 24149CQ  24325.19586720  .00005366  00000+0  49396-3 0  9997
2 60554  97.7323  39.2679 0008606 189.0623 171.0444 14.95126295 14233
UM5-EOSAT               
1 60555U 24149CR  24325.45401494  .00006103  00000+0  55686-3 0  9990
2 60555  97.7395  39.6210 0008364 196.6828 163.4119 14.95421741 14272
